{
    "links": {
        "self": "http://www.neowsapp.com/rest/v1/neo/3772389?api_key=iIulBulltgU6a56xZRHN4H3l9WmuAYTsLGpBGhQ2"
    },
    "id": "3772389",
    "neo_reference_id": "3772389",
    "name": "(2017 FC65)",
    "designation": "2017 FC65",
    "nasa_jpl_url": "http://ssd.jpl.nasa.gov/sbdb.cgi?sstr=3772389",
    "absolute_magnitude_h": 25.7,
    "estimated_diameter": {
        "kilometers": {
            "estimated_diameter_min": 0.0192555078,
            "estimated_diameter_max": 0.0430566244
        },
        "meters": {
            "estimated_diameter_min": 19.2555078188,
            "estimated_diameter_max": 43.0566244241
        },
        "miles": {
            "estimated_diameter_min": 0.0119648141,
            "estimated_diameter_max": 0.0267541378
        },
        "feet": {
            "estimated_diameter_min": 63.1742402722,
            "estimated_diameter_max": 141.2618956756
        }
    },
    "is_potentially_hazardous_asteroid": false,
    "close_approach_data": [
        {
            "close_approach_date": "1928-03-21",
            "close_approach_date_full": "1928-Mar-21 17:07",
            "epoch_date_close_approach": -1318488780000,
            "relative_velocity": {
                "kilometers_per_second": "27.2160272332",
                "kilometers_per_hour": "97977.6980393846",
                "miles_per_hour": "60879.531317861"
            },
            "miss_distance": {
                "astronomical": "0.0365664644",
                "lunar": "14.2243546516",
                "kilometers": "5470265.187670828",
                "miles": "3399065.1708723064"
            },
            "orbiting_body": "Earth"
        },
        {
            "close_approach_date": "2017-03-20",
            "close_approach_date_full": "2017-Mar-20 08:47",
            "epoch_date_close_approach": 1489999620000,
            "relative_velocity": {
                "kilometers_per_second": "25.8023486629",
                "kilometers_per_hour": "92888.4551863993",
                "miles_per_hour": "57717.2737240157"
            },
            "miss_distance": {
                "astronomical": "0.0142796557",
                "lunar": "5.5547860673",
                "kilometers": "2136206.077053359",
                "miles": "1327376.9049959942"
            },
            "orbiting_body": "Earth"
        },
        {
            "close_approach_date": "2171-08-31",
            "close_approach_date_full": "2171-Aug-31 14:16",
            "epoch_date_close_approach": 6363929760000,
            "relative_velocity": {
                "kilometers_per_second": "16.7077755088",
                "kilometers_per_hour": "60147.9918316386",
                "miles_per_hour": "37373.623035609"
            },
            "miss_distance": {
                "astronomical": "0.3298017253",
                "lunar": "128.2928711417",
                "kilometers": "49337635.627205111",
                "miles": "30656985.1954520918"
            },
            "orbiting_body": "Earth"
        }
    ],
    "orbital_data": {
        "orbit_id": "4",
        "orbit_determination_date": "2019-07-17 06:11:50",
        "first_observation_date": "2017-03-21",
        "last_observation_date": "2017-03-26",
        "data_arc_in_days": 5,
        "observations_used": 26,
        "orbit_uncertainty": "8",
        "minimum_orbit_intersection": ".0106922",
        "jupiter_tisserand_invariant": "3.527",
        "epoch_osculation": "2457836.5",
        "eccentricity": ".7870945448086243",
        "semi_major_axis": "1.861913719966796",
        "inclination": "7.065725054751867",
        "ascending_node_longitude": "175.2101646990865",
        "orbital_period": "927.9781597695414",
        "perihelion_distance": ".3964115880765983",
        "perihelion_argument": "253.5232034534504",
        "aphelion_distance": "3.327415851856993",
        "perihelion_time": "2457787.996253378711",
        "mean_anomaly": "18.81655144556471",
        "mean_motion": ".3879401645502132",
        "equinox": "J2000",
        "orbit_class": {
            "orbit_class_type": "APO",
            "orbit_class_description": "Near-Earth asteroid orbits which cross the Earth’s orbit similar to that of 1862 Apollo",
            "orbit_class_range": "a (semi-major axis) > 1.0 AU; q (perihelion) < 1.017 AU"
        }
    },
    "is_sentry_object": false
}